NORAD_CAT_ID,OBJECT_NAME,OBJECT_TYPE,EPOCH,MEAN_MOTION,ECCENTRICITY,INCLINATION,RA_OF_ASC_NODE,ARG_OF_PERICENTER,MEAN_ANOMALY,BSTAR,MEAN_MOTION_DOT,MEAN_MOTION_DDOT,TLE_LINE0,TLE_LINE1,TLE_LINE2,SEMIMAJOR_AXIS,PERIOD,APOGEE,PERIGEE,DECAYED
49154.0,STARLINK-3068,PAYLOAD,2023-05-28 21:45:24,14.98331449,0.0003166,69.9991,315.5934,268.7591,91.3206,7.3503e-05,7.84e-06,0.0,0 STARLINK-3068,1 49154U 21082AA  23148.90653576  .00000784  00000-0  73503-4 0  9996,2 49154  69.9991 315.5934 0003166 268.7591  91.3206 14.98331449 95395,6950.188,96.107,574.254,569.853,0.0
49154.0,STARLINK-3068,PAYLOAD,2023-05-29 13:46:45,14.98329904,0.0003114,69.9991,313.9097,269.2912,90.789,1.1024e-05,3.9e-07,0.0,0 STARLINK-3068,1 49154U 21082AA  23149.57413775  .00000039  00000-0  11024-4 0  9998,2 49154  69.9991 313.9097 0003114 269.2912  90.7890 14.98329904 95499,6950.193,96.107,574.222,569.894,0.0
49154.0,STARLINK-3068,PAYLOAD,2023-05-29 21:47:25,14.98331493,0.0003224,69.999,313.0684,269.2198,90.8591,-7.9383e-07,-1.03e-06,0.0,0 STARLINK-3068,1 49154U 21082AA  23149.90793675 -.00000103  00000-0 -79383-6 0  9993,2 49154  69.9990 313.0684 0003224 269.2198  90.8591 14.98331493 95540,6950.188,96.107,574.294,569.813,0.0
49154.0,STARLINK-3068,PAYLOAD,2023-05-30 12:12:38,14.98331422,0.0003178,69.9991,311.5533,269.4771,90.6024,2.6358e-05,2.21e-06,0.0,0 STARLINK-3068,1 49154U 21082AA  23150.50877556  .00000221  00000-0  26358-4 0  9993,2 49154  69.9991 311.5533 0003178 269.4771  90.6024 14.98331422 95635,6950.188,96.107,574.262,569.845,0.0
49154.0,STARLINK-3068,PAYLOAD,2023-05-30 20:13:18,14.98331761,0.0003184,69.9991,310.7117,269.2456,90.8339,2.0923e-05,1.57e-06,0.0,0 STARLINK-3068,1 49154U 21082AA  23150.84257504  .00000157  00000-0  20923-4 0  9995,2 49154  69.9991 310.7117 0003184 269.2456  90.8339 14.98331761 95681,6950.187,96.107,574.265,569.84,0.0
49154.0,STARLINK-3068,PAYLOAD,2023-05-31 10:38:31,14.98329773,0.0003241,69.9991,309.1965,269.7823,90.2965,3.0727e-05,2.74e-06,0.0,0 STARLINK-3068,1 49154U 21082AA  23151.44341515  .00000274  00000-0  30727-4 0  9991,2 49154  69.9991 309.1965 0003241 269.7823  90.2965 14.98329773 95770,6950.194,96.107,574.311,569.806,0.0
49154.0,STARLINK-3068,PAYLOAD,2023-05-31 13:50:47,14.9832911,0.0003246,69.9991,308.8598,269.7981,90.2806,2.196e-05,1.69e-06,0.0,0 STARLINK-3068,1 49154U 21082AA  23151.57693578  .00000169  00000-0  21960-4 0  9996,2 49154  69.9991 308.8598 0003246 269.7981  90.2806 14.98329110 95799,6950.196,96.107,574.317,569.805,0.0
49154.0,STARLINK-3068,PAYLOAD,2023-05-31 20:15:19,14.98332533,0.000324,69.999,308.1864,269.7236,90.3551,3.56e-05,3.32e-06,0.0,0 STARLINK-3068,1 49154U 21082AA  23151.84397298  .00000332  00000-0  35600-4 0  9994,2 49154  69.9990 308.1864 0003240 269.7236  90.3551 14.98332533 95830,6950.185,96.107,574.302,569.798,0.0
49154.0,STARLINK-3068,PAYLOAD,2023-06-01 10:40:32,14.98329301,0.0003196,69.9991,306.6714,269.8412,90.2381,-1.7115e-05,-2.97e-06,0.0,0 STARLINK-3068,1 49154U 21082AA  23152.44481627 -.00000297  00000-0 -17115-4 0  9994,2 49154  69.9991 306.6714 0003196 269.8412  90.2381 14.98329301 95924,6950.195,96.107,574.281,569.839,0.0
49154.0,STARLINK-3068,PAYLOAD,2023-06-01 12:16:40,14.98329085,0.0003201,69.9991,306.5031,269.8219,90.2574,-1.872e-05,-3.16e-06,0.0,0 STARLINK-3068,1 49154U 21082AA  23152.51157647 -.00000316  00000-0 -18720-4 0  9999,2 49154  69.9991 306.5031 0003201 269.8219  90.2574 14.98329085 95931,6950.196,96.107,574.285,569.836,0.0
49154.0,STARLINK-3068,PAYLOAD,2023-06-02 13:54:49,14.98327982,0.0003167,69.9989,303.8097,269.5659,90.5137,-1.3988e-05,-2.6e-06,0.0,0 STARLINK-3068,1 49154U 21082AA  23153.57973682 -.00000260  00000-0 -13988-4 0  9990,2 49154  69.9989 303.8097 0003167 269.5659  90.5137 14.98327982 96096,6950.199,96.107,574.265,569.863,0.0
49154.0,STARLINK-3068,PAYLOAD,2023-06-02 18:43:13,14.9832852,0.0003255,69.9989,303.3051,269.5074,90.5712,-1.8337e-05,-3.12e-06,0.0,0 STARLINK-3068,1 49154U 21082AA  23153.78001670 -.00000312  00000-0 -18337-4 0  9993,2 49154  69.9989 303.3051 0003255 269.5074  90.5712 14.98328520 96122,6950.197,96.107,574.325,569.8,0.0
49154.0,STARLINK-3068,PAYLOAD,2023-06-03 13:56:50,14.98326542,0.0003275,69.9988,301.2852,268.2672,91.8112,1.848e-07,-9.1e-07,0.0,0 STARLINK-3068,1 49154U 21082AA  23154.58113846 -.00000091  00000-0  18480-6 0  9995,2 49154  69.9988 301.2852 0003275 268.2672  91.8112 14.98326542 96242,6950.204,96.107,574.345,569.792,0.0
49154.0,STARLINK-3068,PAYLOAD,2023-06-03 18:45:14,14.98330087,0.0003246,69.9989,300.7804,267.6707,92.4081,1.6993e-05,1.1e-06,0.0,0 STARLINK-3068,1 49154U 21082AA  23154.78141588  .00000110  00000-0  16993-4 0  9997,2 49154  69.9989 300.7804 0003246 267.6707  92.4081 14.98330087 96278,6950.193,96.107,574.314,569.802,0.0
49154.0,STARLINK-3068,PAYLOAD,2023-06-04 13:58:50,14.98330098,0.0003249,69.9991,298.7603,268.8026,91.276,6.3331e-05,6.63e-06,0.0,0 STARLINK-3068,1 49154U 21082AA  23155.58253448  .00000663  00000-0  63331-4 0  9996,2 49154  69.9991 298.7603 0003249 268.8026  91.2760 14.98330098 96390,6950.193,96.107,574.316,569.799,0.0
49154.0,STARLINK-3068,PAYLOAD,2023-06-04 18:47:14,14.98332388,0.0003233,69.9991,298.2554,268.3909,91.6879,8.5288e-05,9.25e-06,0.0,0 STARLINK-3068,1 49154U 21082AA  23155.78281223  .00000925  00000-0  85288-4 0  9996,2 49154  69.9991 298.2554 0003233 268.3909  91.6879 14.98332388 96421,6950.186,96.107,574.298,569.804,0.0
49154.0,STARLINK-3068,PAYLOAD,2023-06-04 20:23:22,14.98333559,0.0003231,69.9991,298.087,268.2824,91.7965,9.5907e-05,1.052e-05,0.0,0 STARLINK-3068,1 49154U 21082AA  23155.84957108  .00001052  00000-0  95907-4 0  9996,2 49154  69.9991 298.0870 0003231 268.2824  91.7965 14.98333559 96432,6950.182,96.107,574.292,569.801,0.0
49154.0,STARLINK-3068,PAYLOAD,2023-06-05 10:48:36,14.98326599,0.000315,69.9993,296.5717,267.6083,92.4716,-1.9214e-06,-1.16e-06,0.0,0 STARLINK-3068,1 49154U 21082AA  23156.45041834 -.00000116  00000-0 -19214-5 0  9994,2 49154  69.9993 296.5717 0003150 267.6083  92.4716 14.98326599 96525,6950.203,96.107,574.258,569.879,0.0
49154.0,STARLINK-3068,PAYLOAD,2023-06-05 12:24:44,14.98326397,0.000315,69.9992,296.4033,267.4281,92.6518,-3.6158e-06,-1.36e-06,0.0,0 STARLINK-3068,1 49154U 21082AA  23156.51717866 -.00000136  00000-0 -36158-5 0  9994,2 49154  69.9992 296.4033 0003150 267.4281  92.6518 14.98326397 96531,6950.204,96.107,574.258,569.88,0.0
49154.0,STARLINK-3068,PAYLOAD,2023-06-05 18:49:16,14.98328088,0.0003175,69.9993,295.7298,268.3215,91.758,4.7554e-06,-3.6e-07,0.0,0 STARLINK-3068,1 49154U 21082AA  23156.78421782 -.00000036  00000-0  47554-5 0  9992,2 49154  69.9993 295.7298 0003175 268.3215  91.7580 14.98328088 96573,6950.199,96.107,574.27,569.857,0.0
49154.0,STARLINK-3068,PAYLOAD,2023-06-06 12:26:44,14.98340235,0.0003194,69.9989,293.8782,272.0855,87.9938,-0.00020584,-2.549e-05,0.0,0 STARLINK-3068,1 49154U 21082AA  23157.51857547 -.00002549  00000-0 -20584-3 0  9990,2 49154  69.9989 293.8782 0003194 272.0855  87.9938 14.98340235 96682,6950.161,96.106,574.246,569.806,0.0
49154.0,STARLINK-3068,PAYLOAD,2023-06-06 15:39:01,14.98331739,0.0003351,69.999,293.5415,271.1223,88.9552,-3.3699e-05,-4.95e-06,0.0,0 STARLINK-3068,1 49154U 21082AA  23157.65209655 -.00000495  00000-0 -33699-4 0  9996,2 49154  69.9990 293.5415 0003351 271.1223  88.9552 14.98331739 96703,6950.188,96.107,574.382,569.724,0.0
49154.0,STARLINK-3068,PAYLOAD,2023-06-06 18:51:16,14.98334981,0.0003336,69.9991,293.2048,271.1581,88.9196,3.8721e-06,-4.7e-07,0.0,0 STARLINK-3068,1 49154U 21082AA  23157.78561318 -.00000047  00000-0  38721-5 0  9991,2 49154  69.9991 293.2048 0003336 271.1581  88.9196 14.98334981 96721,6950.177,96.107,574.361,569.724,0.0
49154.0,STARLINK-3068,PAYLOAD,2023-06-07 18:53:17,14.98332365,0.0003325,69.9992,290.6797,271.17,88.9078,6.0907e-05,6.34e-06,0.0,0 STARLINK-3068,1 49154U 21082AA  23158.78701259  .00000634  00000-0  60907-4 0  9993,2 49154  69.9992 290.6797 0003325 271.1700  88.9078 14.98332365 96874,6950.186,96.107,574.362,569.74,0.0
49154.0,STARLINK-3068,PAYLOAD,2023-06-08 12:30:46,14.98331074,0.000326,69.9995,288.8278,271.2687,88.8098,2.6596e-05,2.24e-06,0.0,0 STARLINK-3068,1 49154U 21082AA  23159.52137370  .00000224  00000-0  26596-4 0  9994,2 49154  69.9995 288.8278 0003260 271.2687  88.8098 14.98331074 96982,6950.19,96.107,574.32,569.789,0.0
49154.0,STARLINK-3068,PAYLOAD,2023-06-08 15:43:02,14.98334694,0.0003295,69.9995,288.4913,271.2165,88.8617,4.7352e-05,4.72e-06,0.0,0 STARLINK-3068,1 49154U 21082AA  23159.65489050  .00000472  00000-0  47352-4 0  9991,2 49154  69.9995 288.4913 0003295 271.2165  88.8617 14.98334694 97005,6950.178,96.107,574.333,569.753,0.0
49154.0,STARLINK-3068,PAYLOAD,2023-06-08 18:55:18,14.98334895,0.000331,69.9994,288.1546,271.3552,88.7228,4.7419e-05,4.73e-06,0.0,0 STARLINK-3068,1 49154U 21082AA  23159.78840999  .00000473  00000-0  47419-4 0  9993,2 49154  69.9994 288.1546 0003310 271.3552  88.7228 14.98334895 97024,6950.178,96.107,574.343,569.742,0.0
49154.0,STARLINK-3068,PAYLOAD,2023-06-09 09:20:31,14.98328972,0.0003287,69.9993,286.6397,268.8623,91.2159,1.8022e-05,1.22e-06,0.0,0 STARLINK-3068,1 49154U 21082AA  23160.38925260  .00000122  00000-0  18022-4 0  9995,2 49154  69.9993 286.6397 0003287 268.8623  91.2159 14.98328972 97114,6950.196,96.107,574.346,569.777,0.0
49154.0,STARLINK-3068,PAYLOAD,2023-06-09 12:32:47,14.98330568,0.0003287,69.9995,286.3032,269.7681,90.3101,-8.9527e-06,-2e-06,0.0,0 STARLINK-3068,1 49154U 21082AA  23160.52277268 -.00000200  00000-0 -89527-5 0  9997,2 49154  69.9995 286.3032 0003287 269.7681  90.3101 14.98330568 97136,6950.191,96.107,574.341,569.772,0.0
49154.0,STARLINK-3068,PAYLOAD,2023-06-09 15:45:03,14.98332168,0.0003262,69.9995,285.9665,269.9249,90.1537,7.0057e-06,-9e-08,0.0,0 STARLINK-3068,1 49154U 21082AA  23160.65629115 -.00000009  00000-0  70057-5 0  9997,2 49154  69.9995 285.9665 0003262 269.9249  90.1537 14.98332168 97159,6950.186,96.107,574.318,569.784,0.0
